[{"OBJECT_NAME":"OBJECT P","OBJECT_ID":"2025-313P","EPOCH":"2026-03-09T21:52:10.906176","MEAN_MOTION":15.22867124,"ECCENTRICITY":0.00138824,"INCLINATION":97.4038,"RA_OF_ASC_NODE":145.2697,"ARG_OF_PERICENTER":354.5628,"MEAN_ANOMALY":5.5456,"EPHEMERIS_TYPE":0,"CLASSIFICATION_TYPE":"U","NORAD_CAT_ID":67261,"ELEMENT_SET_NO":999,"REV_AT_EPOCH":1085,"BSTAR":0.00092209844,"MEAN_MOTION_DOT":0.00021628,"MEAN_MOTION_DDOT":0},{"OBJECT_NAME":"CZ-4 DEB","OBJECT_ID":"2003-049H","EPOCH":"2026-03-08T08:27:28.944576","MEAN_MOTION":15.27137095,"ECCENTRICITY":0.00307627,"INCLINATION":98.6284,"RA_OF_ASC_NODE":272.5918,"ARG_OF_PERICENTER":169.0311,"MEAN_ANOMALY":191.1601,"EPHEMERIS_TYPE":0,"CLASSIFICATION_TYPE":"U","NORAD_CAT_ID":35381,"ELEMENT_SET_NO":999,"REV_AT_EPOCH":18390,"BSTAR":0.0032047887,"MEAN_MOTION_DOT":0.00087287,"MEAN_MOTION_DDOT":0}]
